[{"OBJECT_NAME":"SALSAT","OBJECT_ID":"2020-068K","EPOCH":"2026-03-05T05:17:18.375648","MEAN_MOTION":15.28075718,"ECCENTRICITY":0.00085909,"INCLINATION":97.8851,"RA_OF_ASC_NODE":61.0911,"ARG_OF_PERICENTER":315.6003,"MEAN_ANOMALY":44.4545,"EPHEMERIS_TYPE":0,"CLASSIFICATION_TYPE":"U","NORAD_CAT_ID":46495,"ELEMENT_SET_NO":999,"REV_AT_EPOCH":29947,"BSTAR":0.00043320384,"MEAN_MOTION_DOT":0.00011798,"MEAN_MOTION_DDOT":0},{"OBJECT_NAME":"XW-3 (CAS-9)","OBJECT_ID":"2021-131B","EPOCH":"2026-03-05T06:27:32.355072","MEAN_MOTION":14.41244151,"ECCENTRICITY":0.000502,"INCLINATION":98.4968,"RA_OF_ASC_NODE":157.2499,"ARG_OF_PERICENTER":60.7445,"MEAN_ANOMALY":299.4245,"EPHEMERIS_TYPE":0,"CLASSIFICATION_TYPE":"U","NORAD_CAT_ID":50466,"ELEMENT_SET_NO":999,"REV_AT_EPOCH":22014,"BSTAR":0.00024765304,"MEAN_MOTION_DOT":7.56e-6,"MEAN_MOTION_DDOT":0},{"OBJECT_NAME":"GREENCUBE (IO-117)","OBJECT_ID":"2022-080E","EPOCH":"2026-03-04T18:03:14.931360","MEAN_MOTION":6.42583119,"ECCENTRICITY":0.00090676,"INCLINATION":70.1624,"RA_OF_ASC_NODE":334.5702,"ARG_OF_PERICENTER":312.4506,"MEAN_ANOMALY":47.5387,"EPHEMERIS_TYPE":0,"CLASSIFICATION_TYPE":"U","NORAD_CAT_ID":53109,"ELEMENT_SET_NO":999,"REV_AT_EPOCH":8535,"BSTAR":0,"MEAN_MOTION_DOT":-3.0e-8,"MEAN_MOTION_DDOT":0},{"OBJECT_NAME":"UMKA 1 (RS40S)","OBJECT_ID":"2023-091G","EPOCH":"2026-03-05T07:00:16.196832","MEAN_MOTION":15.19518188,"ECCENTRICITY":0.00146015,"INCLINATION":97.5186,"RA_OF_ASC_NODE":123.4159,"ARG_OF_PERICENTER":119.8255,"MEAN_ANOMALY":240.4433,"EPHEMERIS_TYPE":0,"CLASSIFICATION_TYPE":"U","NORAD_CAT_ID":57172,"ELEMENT_SET_NO":999,"REV_AT_EPOCH":14822,"BSTAR":0.00042230751,"MEAN_MOTION_DOT":8.929e-5,"MEAN_MOTION_DDOT":0},{"OBJECT_NAME":"CUBESX-HSE 3 (RS42S)","OBJECT_ID":"2023-091N","EPOCH":"2026-03-05T07:24:20.110176","MEAN_MOTION":15.28443672,"ECCENTRICITY":0.00128226,"INCLINATION":97.5215,"RA_OF_ASC_NODE":128.7348,"ARG_OF_PERICENTER":101.1458,"MEAN_ANOMALY":259.1224,"EPHEMERIS_TYPE":0,"CLASSIFICATION_TYPE":"U","NORAD_CAT_ID":57178,"ELEMENT_SET_NO":999,"REV_AT_EPOCH":14854,"BSTAR":0.00064231344,"MEAN_MOTION_DOT":0.00017773,"MEAN_MOTION_DDOT":0},{"OBJECT_NAME":"MONITOR-3 (RS58S)","OBJECT_ID":"2023-091Q","EPOCH":"2026-03-05T07:38:27.269088","MEAN_MOTION":15.25605761,"ECCENTRICITY":0.00137267,"INCLINATION":97.5209,"RA_OF_ASC_NODE":127.1081,"ARG_OF_PERICENTER":105.7788,"MEAN_ANOMALY":254.4965,"EPHEMERIS_TYPE":0,"CLASSIFICATION_TYPE":"U","NORAD_CAT_ID":57180,"ELEMENT_SET_NO":999,"REV_AT_EPOCH":14844,"BSTAR":0.00059631619,"MEAN_MOTION_DOT":0.00015135,"MEAN_MOTION_DDOT":0},{"OBJECT_NAME":"MONITOR-4 (RS57S)","OBJECT_ID":"2023-091S","EPOCH":"2026-03-05T07:17:23.252640","MEAN_MOTION":15.25690576,"ECCENTRICITY":0.00137411,"INCLINATION":97.5204,"RA_OF_ASC_NODE":127.058,"ARG_OF_PERICENTER":106.2645,"MEAN_ANOMALY":254.0106,"EPHEMERIS_TYPE":0,"CLASSIFICATION_TYPE":"U","NORAD_CAT_ID":57182,"ELEMENT_SET_NO":999,"REV_AT_EPOCH":14844,"BSTAR":0.00055643845,"MEAN_MOTION_DOT":0.00014152,"MEAN_MOTION_DDOT":0},{"OBJECT_NAME":"MONITOR-2 (RS39S)","OBJECT_ID":"2023-091U","EPOCH":"2026-03-05T07:44:00.322944","MEAN_MOTION":15.1784876,"ECCENTRICITY":0.00129391,"INCLINATION":97.5207,"RA_OF_ASC_NODE":123.2848,"ARG_OF_PERICENTER":112.2996,"MEAN_ANOMALY":247.961,"EPHEMERIS_TYPE":0,"CLASSIFICATION_TYPE":"U","NORAD_CAT_ID":57184,"ELEMENT_SET_NO":999,"REV_AT_EPOCH":14819,"BSTAR":0.0003625014,"MEAN_MOTION_DOT":7.287e-5,"MEAN_MOTION_DDOT":0},{"OBJECT_NAME":"SVYATOBOR 1 (RS60S)","OBJECT_ID":"2023-091X","EPOCH":"2026-03-05T07:16:33.984768","MEAN_MOTION":15.2469773,"ECCENTRICITY":0.00112817,"INCLINATION":97.5216,"RA_OF_ASC_NODE":127.6267,"ARG_OF_PERICENTER":98.5821,"MEAN_ANOMALY":261.6695,"EPHEMERIS_TYPE":0,"CLASSIFICATION_TYPE":"U","NORAD_CAT_ID":57187,"ELEMENT_SET_NO":999,"REV_AT_EPOCH":14847,"BSTAR":0.00049229665,"MEAN_MOTION_DOT":0.00012131,"MEAN_MOTION_DDOT":0},{"OBJECT_NAME":"VIZARD-METEO (RS38S)","OBJECT_ID":"2023-091Z","EPOCH":"2026-03-05T07:46:05.719584","MEAN_MOTION":15.32557126,"ECCENTRICITY":0.00089583,"INCLINATION":97.5203,"RA_OF_ASC_NODE":131.9411,"ARG_OF_PERICENTER":85.9951,"MEAN_ANOMALY":274.2314,"EPHEMERIS_TYPE":0,"CLASSIFICATION_TYPE":"U","NORAD_CAT_ID":57189,"ELEMENT_SET_NO":999,"REV_AT_EPOCH":14876,"BSTAR":0.00066078406,"MEAN_MOTION_DOT":0.00020751,"MEAN_MOTION_DDOT":0},{"OBJECT_NAME":"NANOZOND 1 (RS49S)","OBJECT_ID":"2023-091AA","EPOCH":"2026-03-04T18:50:11.914368","MEAN_MOTION":15.72447637,"ECCENTRICITY":4.56e-5,"INCLINATION":97.509,"RA_OF_ASC_NODE":143.6448,"ARG_OF_PERICENTER":27.7219,"MEAN_ANOMALY":332.4068,"EPHEMERIS_TYPE":0,"CLASSIFICATION_TYPE":"U","NORAD_CAT_ID":57190,"ELEMENT_SET_NO":999,"REV_AT_EPOCH":14950,"BSTAR":0.0017099321,"MEAN_MOTION_DOT":0.00233103,"MEAN_MOTION_DDOT":0},{"OBJECT_NAME":"POLYTECH-UNIVERSE 3 (RS46S)","OBJECT_ID":"2023-091AB","EPOCH":"2026-03-05T07:07:27.097824","MEAN_MOTION":15.18031442,"ECCENTRICITY":0.00172193,"INCLINATION":97.5183,"RA_OF_ASC_NODE":122.7666,"ARG_OF_PERICENTER":128.223,"MEAN_ANOMALY":232.0557,"EPHEMERIS_TYPE":0,"CLASSIFICATION_TYPE":"U","NORAD_CAT_ID":57191,"ELEMENT_SET_NO":999,"REV_AT_EPOCH":14818,"BSTAR":0.0003679308,"MEAN_MOTION_DOT":7.449e-5,"MEAN_MOTION_DDOT":0},{"OBJECT_NAME":"UTMN 2 (RS27S)","OBJECT_ID":"2023-091AP","EPOCH":"2026-03-05T06:05:41.226432","MEAN_MOTION":15.29325859,"ECCENTRICITY":0.00098887,"INCLINATION":97.5206,"RA_OF_ASC_NODE":130.1851,"ARG_OF_PERICENTER":90.4056,"MEAN_ANOMALY":269.8317,"EPHEMERIS_TYPE":0,"CLASSIFICATION_TYPE":"U","NORAD_CAT_ID":57203,"ELEMENT_SET_NO":999,"REV_AT_EPOCH":14864,"BSTAR":0.00063280806,"MEAN_MOTION_DOT":0.00017972,"MEAN_MOTION_DDOT":0},{"OBJECT_NAME":"KUZGTU 1 (RS47S)","OBJECT_ID":"2023-091AV","EPOCH":"2026-03-05T06:44:50.762112","MEAN_MOTION":15.27322513,"ECCENTRICITY":0.00130141,"INCLINATION":97.5189,"RA_OF_ASC_NODE":127.8338,"ARG_OF_PERICENTER":103.8406,"MEAN_ANOMALY":256.4282,"EPHEMERIS_TYPE":0,"CLASSIFICATION_TYPE":"U","NORAD_CAT_ID":57217,"ELEMENT_SET_NO":999,"REV_AT_EPOCH":14850,"BSTAR":0.00058963968,"MEAN_MOTION_DOT":0.00015759,"MEAN_MOTION_DDOT":0},{"OBJECT_NAME":"SONATE-2","OBJECT_ID":"2024-043Q","EPOCH":"2026-03-04T19:42:15.897312","MEAN_MOTION":15.50902747,"ECCENTRICITY":0.00078015,"INCLINATION":97.5393,"RA_OF_ASC_NODE":208.5178,"ARG_OF_PERICENTER":223.2577,"MEAN_ANOMALY":136.8062,"EPHEMERIS_TYPE":0,"CLASSIFICATION_TYPE":"U","NORAD_CAT_ID":59112,"ELEMENT_SET_NO":999,"REV_AT_EPOCH":11167,"BSTAR":0.00086262241,"MEAN_MOTION_DOT":0.0005011,"MEAN_MOTION_DDOT":0},{"OBJECT_NAME":"MESAT1","OBJECT_ID":"2024-125G","EPOCH":"2026-03-05T03:02:04.278624","MEAN_MOTION":15.53110567,"ECCENTRICITY":0.00112645,"INCLINATION":97.2457,"RA_OF_ASC_NODE":279.9246,"ARG_OF_PERICENTER":240.8767,"MEAN_ANOMALY":119.1359,"EPHEMERIS_TYPE":0,"CLASSIFICATION_TYPE":"U","NORAD_CAT_ID":60209,"ELEMENT_SET_NO":999,"REV_AT_EPOCH":9336,"BSTAR":0.00079348531,"MEAN_MOTION_DOT":0.0004994,"MEAN_MOTION_DDOT":0}]
