SALSAT                  
1 46495U 20068K   26064.22035157  .00011798  00000+0  43320-3 0  9997
2 46495  97.8851  61.0911 0008590 315.6003  44.4545 15.28075718299477
XW-3 (CAS-9)            
1 50466U 21131B   26064.26912448  .00000756  00000+0  24765-3 0  9997
2 50466  98.4968 157.2499 0005020  60.7445 299.4245 14.41244151220148
GREENCUBE (IO-117)      
1 53109U 22080E   26063.75225615 -.00000003  00000+0  00000+0 0  9992
2 53109  70.1624 334.5702 0009067 312.4506  47.5387  6.42583119 85351
UMKA 1 (RS40S)          
1 57172U 23091G   26064.29185413  .00008929  00000+0  42231-3 0  9990
2 57172  97.5186 123.4159 0014601 119.8255 240.4433 15.19518188148222
CUBESX-HSE 3 (RS42S)    
1 57178U 23091N   26064.30856609  .00017773  00000+0  64231-3 0  9991
2 57178  97.5215 128.7348 0012822 101.1458 259.1224 15.28443672148546
MONITOR-3 (RS58S)       
1 57180U 23091Q   26064.31837117  .00015135  00000+0  59632-3 0  9997
2 57180  97.5209 127.1081 0013726 105.7788 254.4965 15.25605761148444
MONITOR-4 (RS57S)       
1 57182U 23091S   26064.30374135  .00014152  00000+0  55644-3 0  9991
2 57182  97.5204 127.0580 0013741 106.2645 254.0106 15.25690576148440
MONITOR-2 (RS39S)       
1 57184U 23091U   26064.32222596  .00007287  00000+0  36250-3 0  9991
2 57184  97.5207 123.2848 0012939 112.2996 247.9610 15.17848760148198
SVYATOBOR 1 (RS60S)     
1 57187U 23091X   26064.30317112  .00012131  00000+0  49230-3 0  9997
2 57187  97.5216 127.6267 0011281  98.5821 261.6695 15.24697730148470
VIZARD-METEO (RS38S)    
1 57189U 23091Z   26064.32367731  .00020751  00000+0  66078-3 0  9999
2 57189  97.5203 131.9411 0008958  85.9951 274.2314 15.32557126148761
NANOZOND 1 (RS49S)      
1 57190U 23091AA  26063.78486012  .00233103  00000+0  17099-2 0  9999
2 57190  97.5090 143.6448 0000456  27.7219 332.4068 15.72447637149508
POLYTECH-UNIVERSE 3 (R*)
1 57191U 23091AB  26064.29684141  .00007449  00000+0  36793-3 0  9995
2 57191  97.5183 122.7666 0017219 128.2230 232.0557 15.18031442148181
UTMN 2 (RS27S)          
1 57203U 23091AP  26064.25394938  .00017972  00000+0  63281-3 0  9991
2 57203  97.5206 130.1851 0009888  90.4056 269.8317 15.29325859148642
KUZGTU 1 (RS47S)        
1 57217U 23091AV  26064.28114308  .00015759  00000+0  58964-3 0  9993
2 57217  97.5189 127.8338 0013014 103.8406 256.4282 15.27322513148504
SONATE-2                
1 59112U 24043Q   26063.82101733  .00050110  00000+0  86262-3 0  9996
2 59112  97.5393 208.5178 0007801 223.2577 136.8062 15.50902747111673
MESAT1                  
1 60209U 24125G   26064.12643841  .00049940  00000+0  79349-3 0  9998
2 60209  97.2457 279.9246 0011264 240.8767 119.1359 15.53110567 93364
